{
  "type": "FeatureCollection",
  "features": [
    {
      "type": "Feature",
      "properties": {
        "norad_id": 43260,
        "name": "GAOFEN-1 03",
        "group": "resource",
        "lat": 6.858402430856776,
        "lon": -145.05926338791858,
        "alt_km": 644.6785126935365,
        "timestamp": "2025-12-02T07:10:08.766914+00:00",
        "meta_object_name": "GAOFEN-1 03",
        "meta_object_id": "2018-031B",
        "meta_epoch": "2025-12-01T20:37:43.970016",
        "meta_mean_motion": 14.76398583,
        "meta_eccentricity": 0.0002733,
        "meta_inclination": 98.0814,
        "meta_ra_of_asc_node": 33.5222,
        "meta_arg_of_pericenter": 3.6821,
        "meta_mean_anomaly": 356.4408,
        "meta_ephemeris_type": 0,
        "meta_classification_type": "U",
        "meta_norad_cat_id": 43260,
        "meta_element_set_no": 999,
        "meta_rev_at_epoch": 41357,
        "meta_bstar": 0.00015998,
        "meta_mean_motion_dot": 1.06e-05,
        "meta_mean_motion_ddot": 0,
        "tle_line1": "1 43260U 18031B   25335.85953669  .00001060  00000+0  15998-3 0  9998",
        "tle_line2": "2 43260  98.0814  33.5222 0002733   3.6821 356.4408 14.76398583413573"
      },
      "geometry": {
        "type": "Point",
        "coordinates": [
          -145.05926338791858,
          6.858402430856776
        ]
      }
    },
    {
      "type": "Feature",
      "properties": {
        "norad_id": 43262,
        "name": "GAOFEN-1 04",
        "group": "resource",
        "lat": -57.34085850122172,
        "lon": 46.937844759052936,
        "alt_km": 648.257869493762,
        "timestamp": "2025-12-02T07:10:08.766924+00:00",
        "meta_object_name": "GAOFEN-1 04",
        "meta_object_id": "2018-031D",
        "meta_epoch": "2025-12-01T20:02:48.143616",
        "meta_mean_motion": 14.76411542,
        "meta_eccentricity": 0.0001409,
        "meta_inclination": 98.0823,
        "meta_ra_of_asc_node": 33.6657,
        "meta_arg_of_pericenter": 63.3405,
        "meta_mean_anomaly": 296.7948,
        "meta_ephemeris_type": 0,
        "meta_classification_type": "U",
        "meta_norad_cat_id": 43262,
        "meta_element_set_no": 999,
        "meta_rev_at_epoch": 41356,
        "meta_bstar": 0.00016161,
        "meta_mean_motion_dot": 1.071e-05,
        "meta_mean_motion_ddot": 0,
        "tle_line1": "1 43262U 18031D   25335.83527944  .00001071  00000+0  16161-3 0  9996",
        "tle_line2": "2 43262  98.0823  33.6657 0001409  63.3405 296.7948 14.76411542413563"
      },
      "geometry": {
        "type": "Point",
        "coordinates": [
          46.937844759052936,
          -57.34085850122172
        ]
      }
    },
    {
      "type": "Feature",
      "properties": {
        "norad_id": 43437,
        "name": "SENTINEL-3B",
        "group": "resource",
        "lat": 6.482834940248985,
        "lon": -137.37845049957278,
        "alt_km": 804.2054205648756,
        "timestamp": "2025-12-02T07:10:08.766935+00:00",
        "meta_object_name": "SENTINEL-3B",
        "meta_object_id": "2018-039A",
        "meta_epoch": "2025-12-01T18:34:39.395712",
        "meta_mean_motion": 14.26735761,
        "meta_eccentricity": 0.0001465,
        "meta_inclination": 98.6282,
        "meta_ra_of_asc_node": 41.1158,
        "meta_arg_of_pericenter": 113.1649,
        "meta_mean_anomaly": 246.9686,
        "meta_ephemeris_type": 0,
        "meta_classification_type": "U",
        "meta_norad_cat_id": 43437,
        "meta_element_set_no": 999,
        "meta_rev_at_epoch": 39597,
        "meta_bstar": 8.3847e-05,
        "meta_mean_motion_dot": 1.59e-06,
        "meta_mean_motion_ddot": 0,
        "tle_line1": "1 43437U 18039A   25335.77406708  .00000159  00000+0  83847-4 0  9997",
        "tle_line2": "2 43437  98.6282  41.1158 0001465 113.1649 246.9686 14.26735761395975"
      },
      "geometry": {
        "type": "Point",
        "coordinates": [
          -137.37845049957278,
          6.482834940248985
        ]
      }
    },
    {
      "type": "Feature",
      "properties": {
        "norad_id": 43461,
        "name": "GAOFEN-5 01",
        "group": "resource",
        "lat": -20.880886051636814,
        "lon": -57.671758704039895,
        "alt_km": 696.1856235668338,
        "timestamp": "2025-12-02T07:10:08.766945+00:00",
        "meta_object_name": "GAOFEN-5 01",
        "meta_object_id": "2018-043A",
        "meta_epoch": "2025-12-01T19:45:17.974080",
        "meta_mean_motion": 14.60388947,
        "meta_eccentricity": 0.0001675,
        "meta_inclination": 98.4311,
        "meta_ra_of_asc_node": 298.6009,
        "meta_arg_of_pericenter": 14.5239,
        "meta_mean_anomaly": 345.6008,
        "meta_ephemeris_type": 0,
        "meta_classification_type": "U",
        "meta_norad_cat_id": 43461,
        "meta_element_set_no": 999,
        "meta_rev_at_epoch": 40288,
        "meta_bstar": 0.00011952,
        "meta_mean_motion_dot": 5.3e-06,
        "meta_mean_motion_ddot": 0,
        "tle_line1": "1 43461U 18043A   25335.82312470  .00000530  00000+0  11952-3 0  9997",
        "tle_line2": "2 43461  98.4311 298.6009 0001675  14.5239 345.6008 14.60388947402881"
      },
      "geometry": {
        "type": "Point",
        "coordinates": [
          -57.671758704039895,
          -20.880886051636814
        ]
      }
    },
    {
      "type": "Feature",
      "properties": {
        "norad_id": 43484,
        "name": "GAOFEN-6",
        "group": "resource",
        "lat": 82.11498870667855,
        "lon": -41.1132448374692,
        "alt_km": 623.3470782924996,
        "timestamp": "2025-12-02T07:10:08.766956+00:00",
        "meta_object_name": "GAOFEN-6",
        "meta_object_id": "2018-048A",
        "meta_epoch": "2025-12-01T21:00:39.085632",
        "meta_mean_motion": 14.76646481,
        "meta_eccentricity": 0.0013011,
        "meta_inclination": 97.8046,
        "meta_ra_of_asc_node": 40.5066,
        "meta_arg_of_pericenter": 93.9223,
        "meta_mean_anomaly": 266.3475,
        "meta_ephemeris_type": 0,
        "meta_classification_type": "U",
        "meta_norad_cat_id": 43484,
        "meta_element_set_no": 999,
        "meta_rev_at_epoch": 40427,
        "meta_bstar": 0.00014445,
        "meta_mean_motion_dot": 9.61e-06,
        "meta_mean_motion_ddot": 0,
        "tle_line1": "1 43484U 18048A   25335.87545238  .00000961  00000+0  14445-3 0  9990",
        "tle_line2": "2 43484  97.8046  40.5066 0013011  93.9223 266.3475 14.76646481404271"
      },
      "geometry": {
        "type": "Point",
        "coordinates": [
          -41.1132448374692,
          82.11498870667855
        ]
      }
    },
    {
      "type": "Feature",
      "properties": {
        "norad_id": 43585,
        "name": "GAOFEN-11 01",
        "group": "resource",
        "lat": 56.19144271586059,
        "lon": 28.50611543587825,
        "alt_km": 413.2326920449741,
        "timestamp": "2025-12-02T07:10:08.766971+00:00",
        "meta_object_name": "GAOFEN-11 01",
        "meta_object_id": "2018-063A",
        "meta_epoch": "2025-12-01T20:04:12.379296",
        "meta_mean_motion": 15.48755619,
        "meta_eccentricity": 0.0005105,
        "meta_inclination": 97.1584,
        "meta_ra_of_asc_node": 38.8651,
        "meta_arg_of_pericenter": 359.4351,
        "meta_mean_anomaly": 0.6894,
        "meta_ephemeris_type": 0,
        "meta_classification_type": "U",
        "meta_norad_cat_id": 43585,
        "meta_element_set_no": 999,
        "meta_rev_at_epoch": 40973,
        "meta_bstar": 0.00029188,
        "meta_mean_motion_dot": 0.00015586,
        "meta_mean_motion_ddot": 0,
        "tle_line1": "1 43585U 18063A   25335.83625439  .00015586  00000+0  29188-3 0  9996",
        "tle_line2": "2 43585  97.1584  38.8651 0005105 359.4351   0.6894 15.48755619409734"
      },
      "geometry": {
        "type": "Point",
        "coordinates": [
          28.50611543587825,
          56.19144271586059
        ]
      }
    },
    {
      "type": "Feature",
      "properties": {
        "norad_id": 43613,
        "name": "ICESAT-2",
        "group": "resource",
        "lat": -35.00209141837617,
        "lon": 56.512791608653416,
        "alt_km": 487.21380661088097,
        "timestamp": "2025-12-02T07:10:08.766981+00:00",
        "meta_object_name": "ICESAT-2",
        "meta_object_id": "2018-070A",
        "meta_epoch": "2025-12-01T19:13:52.243104",
        "meta_mean_motion": 15.28284083,
        "meta_eccentricity": 5.03e-05,
        "meta_inclination": 92.0053,
        "meta_ra_of_asc_node": 237.7845,
        "meta_arg_of_pericenter": 148.0546,
        "meta_mean_anomaly": 212.0734,
        "meta_ephemeris_type": 0,
        "meta_classification_type": "U",
        "meta_norad_cat_id": 43613,
        "meta_element_set_no": 999,
        "meta_rev_at_epoch": 40231,
        "meta_bstar": 0.00050812,
        "meta_mean_motion_dot": 0.00014001,
        "meta_mean_motion_ddot": 0,
        "tle_line1": "1 43613U 18070A   25335.80129911  .00014001  00000+0  50812-3 0  9996",
        "tle_line2": "2 43613  92.0053 237.7845 0000503 148.0546 212.0734 15.28284083402310"
      },
      "geometry": {
        "type": "Point",
        "coordinates": [
          56.512791608653416,
          -35.00209141837617
        ]
      }
    }
  ]
}